{{Infobox Planet  
| name = 509 Iolanda
| image = 
| caption = 
| discovery=yes | physical_characteristics = yes | bgcolour=#FFFFC0
| discovery_ref = 
| discoverer = [[马克斯·沃夫|马克斯·沃夫]]
| discovery_site = [[海德堡|海德堡]]（[[天文台编号列表|024]]）
| discovered =  1903年4月28日
| mp_name = 509
| alt_names = 1903 LR
| named_after = 
| mp_category=[[小行星带|主带小行星]]
| orbit_ref = <ref>[http://ssd.jpl.nasa.gov/sbdb.cgi?sstr=509 509 Iolanda (1903 LR)]</ref>
| epoch = 2011年8月27日
| semimajor= 3.063734245140921AU
| perihelion=2.783882441907925AU
| aphelion= 3.343586048373916[[天文单位|AU]]
| eccentricity =0.09134336755116408					
| period =1958.732202140977[[日|地球日]]<br>5.36[[年|地球年]] 
| inclination=15.41662349208375[[角度|°]]
| asc_node=217.7798509392999°
| arg_peri=157.7175997269644°
| mean_anomaly=279.2160317695502°
| avg_speed=
 | dimensions=52.99千米
 | mass=
 | density=
 | surface_grav=
 | escape_velocity=
 | rotation=12.306小时
 | spectral_type= [[S-型小行星|S]]
 | magnitude=
 | abs_magnitude=8.40
 | albedo=0.2747
 | single_temperature=
}}
'''小行星509'''（'''509 Iolanda'''），是由[[德国|德国]][[天文学家|天文学家]][[马克斯·沃夫|马克斯·沃夫]]于1903年4月28日在德国[[海德堡|海德堡]][[王座山天文台|王座山天文台]]利用照相法发现的[[小行星带|主带]][[小行星|小行星]]。

小行星509的命名依据不明。

== 参考资料 ==
{{Reflist}}

{{Minor Planet Number|(508)[[小行星508|小行星508]]|(510)[[小行星510|小行星510]]}}

[[Category:小行星带天体|Category:小行星带天体]]
[[Category:1903年发现的小行星|Category:1903年发现的小行星]]
[[Category:S-型小行星|Category:S-型小行星]]